{"type": "FeatureCollection", "features": [ {"type": "Feature", "properties": {"norad_id": 34870, "name": "IRIDIUM 33 DEB", "group": "iridium-33-debris", "lat": -43.29486892847292, "lon": -55.63983992153688, "alt_km": 659.377653007884, "timestamp": "2025-12-26T08:37:54.965145+00:00", "meta": {"OBJECT_NAME": "IRIDIUM 33 DEB", "OBJECT_ID": "1997-051MQ", "EPOCH": "2025-12-26T04:14:20.156352", "MEAN_MOTION": 14.7668735, "ECCENTRICITY": 0.0018271, "INCLINATION": 86.3108, "RA_OF_ASC_NODE": 307.9292, "ARG_OF_PERICENTER": 135.8969, "MEAN_ANOMALY": 288.3699, "EPHEMERIS_TYPE": 0, "CLASSIFICATION_TYPE": "U", "NORAD_CAT_ID": 34870, "ELEMENT_SET_NO": 999, "REV_AT_EPOCH": 89109, "BSTAR": 0.0014567, "MEAN_MOTION_DOT": 0.00010246, "MEAN_MOTION_DDOT": 0}, "tle": {"line1": "1 34870U 97051MQ  25360.17662218  .00010246  00000+0  14567-2 0  9990", "line2": "2 34870  86.3108 307.9292 0018271 135.8969 288.3699 14.76687350891091"}}, "geometry": {"type": "Point", "coordinates": [-55.63983992153688, -43.29486892847292]}}, {"type": "Feature", "properties": {"norad_id": 34896, "name": "IRIDIUM 33 DEB", "group": "iridium-33-debris", "lat": 17.28127832948804, "lon": -38.27947460230718, "alt_km": 688.6557440540573, "timestamp": "2025-12-26T08:37:54.965157+00:00", "meta": {"OBJECT_NAME": "IRIDIUM 33 DEB", "OBJECT_ID": "1997-051MY", "EPOCH": "2025-12-24T04:12:44.288640", "MEAN_MOTION": 14.66381715, "ECCENTRICITY": 0.00257287, "INCLINATION": 86.3299, "RA_OF_ASC_NODE": 321.5555, "ARG_OF_PERICENTER": 173.6101, "MEAN_ANOMALY": 201.3064, "EPHEMERIS_TYPE": 0, "CLASSIFICATION_TYPE": "U", "NORAD_CAT_ID": 34896, "ELEMENT_SET_NO": 999, "REV_AT_EPOCH": 87787, "BSTAR": 0.00093038371, "MEAN_MOTION_DOT": 5.188e-05, "MEAN_MOTION_DDOT": 0}, "tle": {"line1": "1 34896U 97051MY  25358.17551260  .00005188  00000+0  93038-3 0  9999", "line2": "2 34896  86.3299 321.5555 0025728 173.6101 201.3064 14.66381715877873"}}, "geometry": {"type": "Point", "coordinates": [-38.27947460230718, 17.28127832948804]}}, {"type": "Feature", "properties": {"norad_id": 34926, "name": "IRIDIUM 33 DEB", "group": "iridium-33-debris", "lat": -74.8900318382934, "lon": -163.5328968846905, "alt_km": 664.8173369855349, "timestamp": "2025-12-26T08:37:54.965168+00:00", "meta": {"OBJECT_NAME": "IRIDIUM 33 DEB", "OBJECT_ID": "1997-051NF", "EPOCH": "2025-12-25T18:30:14.349024", "MEAN_MOTION": 14.55003847, "ECCENTRICITY": 0.00742448, "INCLINATION": 86.1316, "RA_OF_ASC_NODE": 2.2273, "ARG_OF_PERICENTER": 247.4767, "MEAN_ANOMALY": 166.2453, "EPHEMERIS_TYPE": 0, "CLASSIFICATION_TYPE": "U", "NORAD_CAT_ID": 34926, "ELEMENT_SET_NO": 999, "REV_AT_EPOCH": 86646, "BSTAR": 0.0054586547, "MEAN_MOTION_DOT": 0.0002447, "MEAN_MOTION_DDOT": 0}, "tle": {"line1": "1 34926U 97051NF  25359.77099941  .00024470  00000+0  54587-2 0  9993", "line2": "2 34926  86.1316   2.2273 0074244 247.4767 166.2453 14.55003847866469"}}, "geometry": {"type": "Point", "coordinates": [-163.5328968846905, -74.8900318382934]}}, {"type": "Feature", "properties": {"norad_id": 34985, "name": "IRIDIUM 33 DEB", "group": "iridium-33-debris", "lat": 60.6821521491133, "lon": -135.42535465831503, "alt_km": 736.9174361536552, "timestamp": "2025-12-26T08:37:54.965178+00:00", "meta": {"OBJECT_NAME": "IRIDIUM 33 DEB", "OBJECT_ID": "1997-051NR", "EPOCH": "2025-12-24T21:41:40.078176", "MEAN_MOTION": 14.42058691, "ECCENTRICITY": 0.0022059, "INCLINATION": 86.3682, "RA_OF_ASC_NODE": 51.6896, "ARG_OF_PERICENTER": 179.2427, "MEAN_ANOMALY": 307.5347, "EPHEMERIS_TYPE": 0, "CLASSIFICATION_TYPE": "U", "NORAD_CAT_ID": 34985, "ELEMENT_SET_NO": 999, "REV_AT_EPOCH": 87350, "BSTAR": 0.00065683, "MEAN_MOTION_DOT": 2.182e-05, "MEAN_MOTION_DDOT": 0}, "tle": {"line1": "1 34985U 97051NR  25358.90393609  .00002182  00000+0  65683-3 0  9996", "line2": "2 34985  86.3682  51.6896 0022059 179.2427 307.5347 14.42058691873501"}}, "geometry": {"type": "Point", "coordinates": [-135.42535465831503, 60.6821521491133]}}, {"type": "Feature", "properties": {"norad_id": 35051, "name": "IRIDIUM 33 DEB", "group": "iridium-33-debris", "lat": -34.45868944585135, "lon": 0.3974622966171481, "alt_km": 739.0768040974135, "timestamp": "2025-12-26T08:37:54.965188+00:00", "meta": {"OBJECT_NAME": "IRIDIUM 33 DEB", "OBJECT_ID": "1997-051NX", "EPOCH": "2025-12-22T18:31:37.744896", "MEAN_MOTION": 14.47639956, "ECCENTRICITY": 0.0010302, "INCLINATION": 86.324, "RA_OF_ASC_NODE": 4.4893, "ARG_OF_PERICENTER": 63.2582, "MEAN_ANOMALY": 296.9674, "EPHEMERIS_TYPE": 0, "CLASSIFICATION_TYPE": "U", "NORAD_CAT_ID": 35051, "ELEMENT_SET_NO": 999, "REV_AT_EPOCH": 87141, "BSTAR": 0.00060447572, "MEAN_MOTION_DOT": 2.248e-05, "MEAN_MOTION_DDOT": 0}, "tle": {"line1": "1 35051U 97051NX  25356.77196464  .00002248  00000+0  60448-3 0  9991", "line2": "2 35051  86.3240   4.4893 0010302  63.2582 296.9674 14.47639956871417"}}, "geometry": {"type": "Point", "coordinates": [0.3974622966171481, -34.45868944585135]}}, {"type": "Feature", "properties": {"norad_id": 35052, "name": "IRIDIUM 33 DEB", "group": "iridium-33-debris", "lat": 27.770513534751167, "lon": 16.572789180085106, "alt_km": 753.530605915792, "timestamp": "2025-12-26T08:37:54.965198+00:00", "meta": {"OBJECT_NAME": "IRIDIUM 33 DEB", "OBJECT_ID": "1997-051NY", "EPOCH": "2025-12-26T00:09:21.492000", "MEAN_MOTION": 14.38507246, "ECCENTRICITY": 0.0013003, "INCLINATION": 86.3301, "RA_OF_ASC_NODE": 14.7874, "ARG_OF_PERICENTER": 47.6773, "MEAN_ANOMALY": 312.5525, "EPHEMERIS_TYPE": 0, "CLASSIFICATION_TYPE": "U", "NORAD_CAT_ID": 35052, "ELEMENT_SET_NO": 999, "REV_AT_EPOCH": 87466, "BSTAR": 0.000188, "MEAN_MOTION_DOT": 5.94e-06, "MEAN_MOTION_DDOT": 0}, "tle": {"line1": "1 35052U 97051NY  25360.00649875  .00000594  00000+0  18800-3 0  9999", "line2": "2 35052  86.3301  14.7874 0013003  47.6773 312.5525 14.38507246874664"}}, "geometry": {"type": "Point", "coordinates": [16.572789180085106, 27.770513534751167]}}, {"type": "Feature", "properties": {"norad_id": 35080, "name": "IRIDIUM 33 DEB", "group": "iridium-33-debris", "lat": 47.67015902230742, "lon": 50.034984558072004, "alt_km": 597.3294958689648, "timestamp": "2025-12-26T08:37:54.965208+00:00", "meta": {"OBJECT_NAME": "IRIDIUM 33 DEB", "OBJECT_ID": "1997-051PF", "EPOCH": "2025-12-26T03:34:24.926304", "MEAN_MOTION": 14.87541641, "ECCENTRICITY": 0.005777, "INCLINATION": 86.209, "RA_OF_ASC_NODE": 45.9614, "ARG_OF_PERICENTER": 133.1259, "MEAN_ANOMALY": 227.4819, "EPHEMERIS_TYPE": 0, "CLASSIFICATION_TYPE": "U", "NORAD_CAT_ID": 35080, "ELEMENT_SET_NO": 999, "REV_AT_EPOCH": 69887, "BSTAR": 0.0052116, "MEAN_MOTION_DOT": 0.00049051, "MEAN_MOTION_DDOT": 0}, "tle": {"line1": "1 35080U 97051PF  25360.14889961  .00049051  00000+0  52116-2 0  9995", "line2": "2 35080  86.2090  45.9614 0057770 133.1259 227.4819 14.87541641698874"}}, "geometry": {"type": "Point", "coordinates": [50.034984558072004, 47.67015902230742]}}, {"type": "Feature", "properties": {"norad_id": 35297, "name": "IRIDIUM 33 DEB", "group": "iridium-33-debris", "lat": -81.50931402723612, "lon": -98.00206659600023, "alt_km": 761.2622615594837, "timestamp": "2025-12-26T08:37:54.965218+00:00", "meta": {"OBJECT_NAME": "IRIDIUM 33 DEB", "OBJECT_ID": "1997-051PM", "EPOCH": "2025-12-22T21:59:54.464640", "MEAN_MOTION": 14.45198443, "ECCENTRICITY": 0.0018277, "INCLINATION": 86.3852, "RA_OF_ASC_NODE": 58.4147, "ARG_OF_PERICENTER": 110.0569, "MEAN_ANOMALY": 250.2602, "EPHEMERIS_TYPE": 0, "CLASSIFICATION_TYPE": "U", "NORAD_CAT_ID": 35297, "ELEMENT_SET_NO": 999, "REV_AT_EPOCH": 70573, "BSTAR": 0.00060275, "MEAN_MOTION_DOT": 2.134e-05, "MEAN_MOTION_DDOT": 0}, "tle": {"line1": "1 35297U 97051PM  25356.91660260  .00002134  00000+0  60275-3 0  9991", "line2": "2 35297  86.3852  58.4147 0018277 110.0569 250.2602 14.45198443705738"}}, "geometry": {"type": "Point", "coordinates": [-98.00206659600023, -81.50931402723612]}}, {"type": "Feature", "properties": {"norad_id": 35299, "name": "IRIDIUM 33 DEB", "group": "iridium-33-debris", "lat": -15.737370092001516, "lon": 26.20753825987463, "alt_km": 748.930714820186, "timestamp": "2025-12-26T08:37:54.965228+00:00", "meta": {"OBJECT_NAME": "IRIDIUM 33 DEB", "OBJECT_ID": "1997-051PP", "EPOCH": "2025-12-25T13:24:36.107136", "MEAN_MOTION": 14.40924492, "ECCENTRICITY": 0.0058519, "INCLINATION": 86.2877, "RA_OF_ASC_NODE": 27.6045, "ARG_OF_PERICENTER": 61.5173, "MEAN_ANOMALY": 91.5111, "EPHEMERIS_TYPE": 0, "CLASSIFICATION_TYPE": "U", "NORAD_CAT_ID": 35299, "ELEMENT_SET_NO": 999, "REV_AT_EPOCH": 86515, "BSTAR": 0.00086031, "MEAN_MOTION_DOT": 2.836e-05, "MEAN_MOTION_DDOT": 0}, "tle": {"line1": "1 35299U 97051PP  25359.55875124  .00002836  00000+0  86031-3 0  9990", "line2": "2 35299  86.2877  27.6045 0058519  61.5173  91.5111 14.40924492865155"}}, "geometry": {"type": "Point", "coordinates": [26.20753825987463, -15.737370092001516]}}, {"type": "Feature", "properties": {"norad_id": 35480, "name": "IRIDIUM 33 DEB", "group": "iridium-33-debris", "lat": 19.02725234609103, "lon": -162.2528525788705, "alt_km": 727.8840098839428, "timestamp": "2025-12-26T08:37:54.965240+00:00", "meta": {"OBJECT_NAME": "IRIDIUM 33 DEB", "OBJECT_ID": "1997-051QA", "EPOCH": "2025-12-24T07:51:25.805664", "MEAN_MOTION": 14.49809175, "ECCENTRICITY": 0.00158453, "INCLINATION": 86.3558, "RA_OF_ASC_NODE": 19.8875, "ARG_OF_PERICENTER": 70.7073, "MEAN_ANOMALY": 289.5844, "EPHEMERIS_TYPE": 0, "CLASSIFICATION_TYPE": "U", "NORAD_CAT_ID": 35480, "ELEMENT_SET_NO": 999, "REV_AT_EPOCH": 87199, "BSTAR": 0.00057778093, "MEAN_MOTION_DOT": 2.251e-05, "MEAN_MOTION_DDOT": 0}, "tle": {"line1": "1 35480U 97051QA  25358.32738201  .00002251  00000+0  57778-3 0  9997", "line2": "2 35480  86.3558  19.8875 0015845  70.7073 289.5844 14.49809175871994"}}, "geometry": {"type": "Point", "coordinates": [-162.2528525788705, 19.02725234609103]}}]}